start=new Date('2022-08-22T00:00:00.000Z').valueOf();
sats=[{"DECAY_DATE":null,"RCS_SIZE":"LARGE","MEAN_ANOMALY":"157.9029","TLE_LINE1":"1 52550U 22051T   22233.91667824  .00002625  00000-0  18292-3 0  9992","APOAPSIS":"541.194","PERIOD":"95.437","CLASSIFICATION_TYPE":"U","OBJECT_NAME":"STARLINK-3965","FILE":"3542671","OBJECT_ID":"2022-051T","LAUNCH_DATE":"2022-05-13","MEAN_MOTION_DOT":"0.00002625","SEMIMAJOR_AXIS":"6917.863","GP_ID":"210694255","ECCENTRICITY":"0.00021200","INCLINATION":"53.2166","ELEMENT_SET_NO":"999","MEAN_ELEMENT_THEORY":"SGP4","REV_AT_EPOCH":"130","CENTER_NAME":"EARTH","REF_FRAME":"TEME","EPHEMERIS_TYPE":"0","TIME_SYSTEM":"UTC","PERIAPSIS":"538.261","ARG_OF_PERICENTER":"54.3991","TLE_LINE2":"2 52550  53.2166 186.0563 0002120  54.3991 157.9029 15.08845824  1309","NORAD_CAT_ID":"52550","OBJECT_TYPE":"PAYLOAD","BSTAR":"0.00018292000000","EPOCH":"2022-08-21T22:00:00.999936","RA_OF_ASC_NODE":"186.0563","MEAN_MOTION_DDOT":"0.0000000000000","SITE":"AFWTR","COUNTRY_CODE":"US","MEAN_MOTION":"15.08845824"},{"TIME_SYSTEM":"UTC","PERIAPSIS":"538.342","ARG_OF_PERICENTER":"57.1293","REF_FRAME":"TEME","EPHEMERIS_TYPE":"0","RA_OF_ASC_NODE":"186.0570","SITE":"AFWTR","MEAN_MOTION_DDOT":"0.0000000000000","COUNTRY_CODE":"US","MEAN_MOTION":"15.08826026","TLE_LINE2":"2 52551  53.2174 186.0570 0002091  57.1293 115.1777 15.08826026  1309","NORAD_CAT_ID":"52551","BSTAR":"0.00021486000000","OBJECT_TYPE":"PAYLOAD","EPOCH":"2022-08-21T22:00:00.999936","PERIOD":"95.438","OBJECT_NAME":"STARLINK-3969","CLASSIFICATION_TYPE":"U","OBJECT_ID":"2022-051U","FILE":"3542671","DECAY_DATE":null,"RCS_SIZE":"LARGE","MEAN_ANOMALY":"115.1777","TLE_LINE1":"1 52551U 22051U   22233.91667824  .00003132  00000-0  21486-3 0  9996","APOAPSIS":"541.235","INCLINATION":"53.2174","ELEMENT_SET_NO":"999","CENTER_NAME":"EARTH","REV_AT_EPOCH":"130","MEAN_ELEMENT_THEORY":"SGP4","LAUNCH_DATE":"2022-05-13","MEAN_MOTION_DOT":"0.00003132","GP_ID":"210694390","SEMIMAJOR_AXIS":"6917.923","ECCENTRICITY":"0.00020910"},{"LAUNCH_DATE":"2022-05-13","MEAN_MOTION_DOT":"0.00002255","GP_ID":"210694963","SEMIMAJOR_AXIS":"6917.896","ECCENTRICITY":"0.00016730","INCLINATION":"53.2165","ELEMENT_SET_NO":"999","MEAN_ELEMENT_THEORY":"SGP4","REV_AT_EPOCH":"130","CENTER_NAME":"EARTH","DECAY_DATE":null,"RCS_SIZE":"LARGE","MEAN_ANOMALY":"211.3055","TLE_LINE1":"1 52552U 22051V   22233.91667824  .00002255  00000-0  15976-3 0  9999","APOAPSIS":"540.919","PERIOD":"95.438","CLASSIFICATION_TYPE":"U","OBJECT_NAME":"STARLINK-3966","FILE":"3542671","OBJECT_ID":"2022-051V","TLE_LINE2":"2 52552  53.2165 186.0551 0001673  60.9791 211.3055 15.08834814  1301","NORAD_CAT_ID":"52552","OBJECT_TYPE":"PAYLOAD","BSTAR":"0.00015976000000","EPOCH":"2022-08-21T22:00:00.999936","RA_OF_ASC_NODE":"186.0551","MEAN_MOTION_DDOT":"0.0000000000000","SITE":"AFWTR","COUNTRY_CODE":"US","MEAN_MOTION":"15.08834814","REF_FRAME":"TEME","EPHEMERIS_TYPE":"0","TIME_SYSTEM":"UTC","PERIAPSIS":"538.604","ARG_OF_PERICENTER":"60.9791"},{"RCS_SIZE":"LARGE","DECAY_DATE":null,"APOAPSIS":"541.157","TLE_LINE1":"1 52553U 22051W   22233.91667824  .00002753  00000-0  19105-3 0  9991","MEAN_ANOMALY":"139.1995","PERIOD":"95.438","OBJECT_ID":"2022-051W","FILE":"3542671","OBJECT_NAME":"STARLINK-3858","CLASSIFICATION_TYPE":"U","MEAN_MOTION_DOT":"0.00002753","LAUNCH_DATE":"2022-05-13","ECCENTRICITY":"0.00020040","SEMIMAJOR_AXIS":"6917.905","GP_ID":"210694115","INCLINATION":"53.2168","REV_AT_EPOCH":"130","CENTER_NAME":"EARTH","MEAN_ELEMENT_THEORY":"SGP4","ELEMENT_SET_NO":"999","REF_FRAME":"TEME","EPHEMERIS_TYPE":"0","TIME_SYSTEM":"UTC","ARG_OF_PERICENTER":"53.0602","PERIAPSIS":"538.384","NORAD_CAT_ID":"52553","TLE_LINE2":"2 52553  53.2168 186.0573 0002004  53.0602 139.1995 15.08831858  1307","EPOCH":"2022-08-21T22:00:00.999936","BSTAR":"0.00019105000000","OBJECT_TYPE":"PAYLOAD","MEAN_MOTION_DDOT":"0.0000000000000","SITE":"AFWTR","RA_OF_ASC_NODE":"186.0573","MEAN_MOTION":"15.08831858","COUNTRY_CODE":"US"},{"TIME_SYSTEM":"UTC","PERIAPSIS":"538.242","ARG_OF_PERICENTER":"52.4244","REF_FRAME":"TEME","EPHEMERIS_TYPE":"0","RA_OF_ASC_NODE":"191.0804","SITE":"AFWTR","MEAN_MOTION_DDOT":"0.0000000000000","COUNTRY_CODE":"US","MEAN_MOTION":"15.08825746","TLE_LINE2":"2 52554  53.2162 191.0804 0002236  52.4244 292.3472 15.08825746  1308","NORAD_CAT_ID":"52554","BSTAR":"0.00047797000000","OBJECT_TYPE":"PAYLOAD","EPOCH":"2022-08-21T22:00:00.999936","PERIOD":"95.438","OBJECT_NAME":"STARLINK-3770","CLASSIFICATION_TYPE":"U","OBJECT_ID":"2022-051X","FILE":"3542671","DECAY_DATE":null,"RCS_SIZE":"LARGE","TLE_LINE1":"1 52554U 22051X   22233.91667824  .00007324  00000-0  47797-3 0  9999","APOAPSIS":"541.336","MEAN_ANOMALY":"292.3472","INCLINATION":"53.2162","ELEMENT_SET_NO":"999","REV_AT_EPOCH":"130","CENTER_NAME":"EARTH","MEAN_ELEMENT_THEORY":"SGP4","LAUNCH_DATE":"2022-05-13","MEAN_MOTION_DOT":"0.00007324","SEMIMAJOR_AXIS":"6917.924","GP_ID":"210694670","ECCENTRICITY":"0.00022360"},{"TLE_LINE1":"1 52555U 22051Y   22233.91667824  .00003163  00000-0  21666-3 0  9994","MEAN_ANOMALY":"159.1847","APOAPSIS":"540.848","DECAY_DATE":null,"RCS_SIZE":"LARGE","OBJECT_NAME":"STARLINK-3949","CLASSIFICATION_TYPE":"U","OBJECT_ID":"2022-051Y","FILE":"3542671","PERIOD":"95.437","GP_ID":"210693977","SEMIMAJOR_AXIS":"6917.835","ECCENTRICITY":"0.00016590","LAUNCH_DATE":"2022-05-13","MEAN_MOTION_DOT":"0.00003163","ELEMENT_SET_NO":"999","REV_AT_EPOCH":"130","CENTER_NAME":"EARTH","MEAN_ELEMENT_THEORY":"SGP4","INCLINATION":"53.2161","EPHEMERIS_TYPE":"0","REF_FRAME":"TEME","PERIAPSIS":"538.553","ARG_OF_PERICENTER":"73.1032","TIME_SYSTEM":"UTC","BSTAR":"0.00021666000000","OBJECT_TYPE":"PAYLOAD","EPOCH":"2022-08-21T22:00:00.999936","TLE_LINE2":"2 52555  53.2161 186.0554 0001659  73.1032 159.1847 15.08854789  1302","NORAD_CAT_ID":"52555","COUNTRY_CODE":"US","MEAN_MOTION":"15.08854789","RA_OF_ASC_NODE":"186.0554","MEAN_MOTION_DDOT":"0.0000000000000","SITE":"AFWTR"},{"ARG_OF_PERICENTER":"52.6372","PERIAPSIS":"538.022","TIME_SYSTEM":"UTC","EPHEMERIS_TYPE":"0","REF_FRAME":"TEME","MEAN_MOTION":"15.08854638","COUNTRY_CODE":"US","SITE":"AFWTR","MEAN_MOTION_DDOT":"0.0000000000000","RA_OF_ASC_NODE":"191.0805","EPOCH":"2022-08-21T22:00:00.999936","OBJECT_TYPE":"PAYLOAD","BSTAR":"-0.00205370000000","NORAD_CAT_ID":"52556","TLE_LINE2":"2 52556  53.2162 191.0805 0002427  52.6372 312.2279 15.08854638  1306","FILE":"3542671","OBJECT_ID":"2022-051Z","CLASSIFICATION_TYPE":"U","OBJECT_NAME":"STARLINK-3763","PERIOD":"95.437","MEAN_ANOMALY":"312.2279","TLE_LINE1":"1 52556U 22051Z   22233.91667824 -.00032839  00000-0 -20537-2 0  9994","APOAPSIS":"541.380","RCS_SIZE":"LARGE","DECAY_DATE":null,"REV_AT_EPOCH":"130","MEAN_ELEMENT_THEORY":"SGP4","CENTER_NAME":"EARTH","ELEMENT_SET_NO":"999","INCLINATION":"53.2162","ECCENTRICITY":"0.00024270","SEMIMAJOR_AXIS":"6917.836","GP_ID":"210694813","MEAN_MOTION_DOT":"-0.00032839","LAUNCH_DATE":"2022-05-13"},{"DECAY_DATE":null,"RCS_SIZE":"LARGE","APOAPSIS":"540.801","TLE_LINE1":"1 52557U 22051AA  22233.91667824  .00001814  00000-0  13208-3 0  9990","MEAN_ANOMALY":"225.0946","PERIOD":"95.438","CLASSIFICATION_TYPE":"U","OBJECT_NAME":"STARLINK-3943","FILE":"3542671","OBJECT_ID":"2022-051AA","LAUNCH_DATE":"2022-05-13","MEAN_MOTION_DOT":"0.00001814","GP_ID":"210694529","SEMIMAJOR_AXIS":"6917.923","ECCENTRICITY":"0.00014640","INCLINATION":"53.2168","ELEMENT_SET_NO":"999","MEAN_ELEMENT_THEORY":"SGP4","REV_AT_EPOCH":"130","CENTER_NAME":"EARTH","REF_FRAME":"TEME","EPHEMERIS_TYPE":"0","TIME_SYSTEM":"UTC","PERIAPSIS":"538.775","ARG_OF_PERICENTER":"67.1811","TLE_LINE2":"2 52557  53.2168 186.0566 0001464  67.1811 225.0946 15.08826111  1307","NORAD_CAT_ID":"52557","OBJECT_TYPE":"PAYLOAD","BSTAR":"0.00013208000000","EPOCH":"2022-08-21T22:00:00.999936","RA_OF_ASC_NODE":"186.0566","SITE":"AFWTR","MEAN_MOTION_DDOT":"0.0000000000000","COUNTRY_CODE":"US","MEAN_MOTION":"15.08826111"},{"PERIOD":"95.438","OBJECT_NAME":"STARLINK-3954","CLASSIFICATION_TYPE":"U","OBJECT_ID":"2022-051AB","FILE":"3542671","DECAY_DATE":null,"RCS_SIZE":"LARGE","APOAPSIS":"541.230","TLE_LINE1":"1 52558U 22051AB  22233.91667824 -.00006760  00000-0 -40708-3 0  9993","MEAN_ANOMALY":"232.1927","INCLINATION":"53.2086","ELEMENT_SET_NO":"999","REV_AT_EPOCH":"130","MEAN_ELEMENT_THEORY":"SGP4","CENTER_NAME":"EARTH","LAUNCH_DATE":"2022-05-13","MEAN_MOTION_DOT":"-0.00006760","SEMIMAJOR_AXIS":"6917.895","GP_ID":"210694256","ECCENTRICITY":"0.00021250","TIME_SYSTEM":"UTC","PERIAPSIS":"538.290","ARG_OF_PERICENTER":"55.1075","REF_FRAME":"TEME","EPHEMERIS_TYPE":"0","RA_OF_ASC_NODE":"176.1060","MEAN_MOTION_DDOT":"0.0000000000000","SITE":"AFWTR","COUNTRY_CODE":"US","MEAN_MOTION":"15.08835122","TLE_LINE2":"2 52558  53.2086 176.1060 0002125  55.1075 232.1927 15.08835122  1300","NORAD_CAT_ID":"52558","BSTAR":"-0.00040708000000","OBJECT_TYPE":"PAYLOAD","EPOCH":"2022-08-21T22:00:00.999936"},{"EPHEMERIS_TYPE":"0","REF_FRAME":"TEME","ARG_OF_PERICENTER":"58.5593","PERIAPSIS":"538.107","TIME_SYSTEM":"UTC","EPOCH":"2022-08-21T22:00:00.999936","OBJECT_TYPE":"PAYLOAD","BSTAR":"-0.00040992000000","NORAD_CAT_ID":"52559","TLE_LINE2":"2 52559  53.2154 176.0681 0002346  58.5593 263.4932 15.08845183  1303","MEAN_MOTION":"15.08845183","COUNTRY_CODE":"US","MEAN_MOTION_DDOT":"0.0000000000000","SITE":"AFWTR","RA_OF_ASC_NODE":"176.0681","APOAPSIS":"541.352","TLE_LINE1":"1 52559U 22051AC  22233.91667824 -.00006808  00000-0 -40992-3 0  9992","MEAN_ANOMALY":"263.4932","RCS_SIZE":"LARGE","DECAY_DATE":null,"FILE":"3542671","OBJECT_ID":"2022-051AC","CLASSIFICATION_TYPE":"U","OBJECT_NAME":"STARLINK-3953","PERIOD":"95.437","ECCENTRICITY":"0.00023460","SEMIMAJOR_AXIS":"6917.865","GP_ID":"210694391","MEAN_MOTION_DOT":"-0.00006808","LAUNCH_DATE":"2022-05-13","REV_AT_EPOCH":"130","CENTER_NAME":"EARTH","MEAN_ELEMENT_THEORY":"SGP4","ELEMENT_SET_NO":"999","INCLINATION":"53.2154"}];
